OBJECT_NAME,OBJECT_ID,EPOCH,MEAN_MOTION,ECCENTRICITY,INCLINATION,RA_OF_ASC_NODE,ARG_OF_PERICENTER,MEAN_ANOMALY,EPHEMERIS_TYPE,CLASSIFICATION_TYPE,NORAD_CAT_ID,ELEMENT_SET_NO,REV_AT_EPOCH,BSTAR,MEAN_MOTION_DOT,MEAN_MOTION_DDOT
STARLINK-37687,2026-123R,2026-06-19T14:00:01.999872,15.80885719,.00011412,53.1578,229.2585,85.5839,226.8649,0,U,69368,999,354,-.22681064E-3,-.45256E-3,0
STARLINK-37631,2026-123S,2026-06-19T14:00:01.999872,15.80884402,.00010579,53.1578,229.2676,82.2924,225.6491,0,U,69369,999,359,-.19265827E-3,-.38573E-3,0
STARLINK-37673,2026-123T,2026-06-19T12:41:34.429344,15.80917343,.00013956,53.1574,229.5339,25.6334,334.4758,0,U,69370,999,241,.83487791E-3,.167659E-2,0
STARLINK-37645,2026-123U,2026-06-19T12:44:16.508832,15.80963084,.00010734,53.1571,229.5463,56.5756,303.5369,0,U,69371,999,241,.99540512E-3,.201241E-2,0
STARLINK-37688,2026-123V,2026-06-19T12:40:33.910464,15.80921799,.00011797,53.1569,229.5284,100.0241,260.0915,0,U,69372,999,241,.50210315E-3,.99777E-3,0
STARLINK-37685,2026-123W,2026-06-19T12:39:50.187744,15.80947728,.00013206,53.1571,229.5247,70.7809,289.3357,0,U,69373,999,241,.91792875E-3,.185041E-2,0
STARLINK-37632,2026-123X,2026-06-19T12:38:45.896640,15.80972113,.00005328,53.1571,229.5196,72.3595,287.7486,0,U,69374,999,241,.10249872E-2,.207484E-2,0
STARLINK-37454,2026-123Y,2026-06-19T12:37:11.444160,15.80924043,.00012526,53.1571,229.5122,75.5873,284.5289,0,U,69375,999,241,.56497095E-3,.112537E-2,0
STARLINK-37485,2026-123Z,2026-06-19T12:36:07.429536,15.80946918,.00007424,53.1571,229.5069,59.8641,300.2455,0,U,69376,999,241,.78599863E-3,.157836E-2,0
STARLINK-37439,2026-123AA,2026-06-19T13:56:54.793536,15.80934275,.00013641,53.1574,229.1416,64.5188,295.5975,0,U,69377,999,242,.74845439E-3,.150039E-2,0
STARLINK-37376,2026-123AB,2026-06-19T14:00:01.999872,15.75274620,.00011666,53.1592,229.2316,82.0517,241.8863,0,U,69378,999,368,-.77892366E-3,-.118565E-2,0
STARLINK-37383,2026-123AC,2026-06-19T13:51:49.705632,15.80929381,.00012394,53.1574,229.1163,67.6541,292.4613,0,U,69379,999,242,.68669076E-3,.137365E-2,0
STARLINK-37411,2026-123AD,2026-06-19T13:58:52.043520,15.80944346,.00013472,53.1573,229.1500,73.9165,286.2006,0,U,69380,999,242,.83962837E-3,.168851E-2,0
STARLINK-37427,2026-123AE,2026-06-19T13:52:57.557280,15.80930596,.00012103,53.1574,229.1217,67.1932,292.9219,0,U,69381,999,242,.67984818E-3,.135974E-2,0
QIANFAN-165,2026-124A,2026-06-19T12:26:15.279360,14.16012666,.00031188,88.9984,1.7767,115.9304,244.2205,0,U,69382,999,214,.22859401E-4,.59E-6,0
QIANFAN-166,2026-124B,2026-06-19T13:59:02.580864,14.17059815,.00027318,88.9984,1.7677,106.3306,253.8183,0,U,69383,999,215,.41959971E-4,.99E-6,0
QIANFAN-167,2026-124C,2026-06-19T14:00:35.806464,14.16526232,.00021793,88.9983,1.7677,152.7236,207.4067,0,U,69384,999,215,.20516171E-4,.55E-6,0
QIANFAN-168,2026-124D,2026-06-19T13:51:57.584448,14.17873175,.00032791,88.9983,1.7670,127.9783,232.1702,0,U,69385,999,215,.33334211E-4,.82E-6,0
QIANFAN-169,2026-124E,2026-06-19T13:47:32.101440,14.18286761,.00033778,88.9983,1.7664,145.9780,214.1627,0,U,69386,999,215,.3456964E-4,.85E-6,0
QIANFAN-170,2026-124F,2026-06-19T13:41:37.354272,14.19183720,.00032179,88.9983,1.7657,122.6489,237.5011,0,U,69387,999,215,.29101878E-4,.75E-6,0
QIANFAN-171,2026-124G,2026-06-19T13:35:14.832096,14.20068192,.00022446,88.9983,1.7650,170.1978,189.9256,0,U,69388,999,215,.16692093E-3,.37E-5,0
QIANFAN-172,2026-124H,2026-06-19T13:37:55.478208,14.19638399,.00025838,88.9983,1.7654,146.3929,213.7425,0,U,69389,999,215,.29026135E-4,.76E-6,0
QIANFAN-173,2026-124J,2026-06-19T13:32:18.114720,14.20509812,.00029186,88.9983,1.7648,136.9321,223.2098,0,U,69390,999,215,.26825886E-4,.72E-6,0
QIANFAN-174,2026-124K,2026-06-19T13:27:03.740544,14.20878233,.00030757,88.9983,1.7642,144.5759,215.5637,0,U,69391,999,215,.3877447E-4,.98E-6,0
QIANFAN-175,2026-124L,2026-06-19T13:25:28.291008,14.21339712,.00035545,88.9983,1.7641,162.6693,197.4620,0,U,69392,999,215,.30542044E-4,.81E-6,0
QIANFAN-176,2026-124M,2026-06-19T13:21:59.641920,14.21841006,.00024935,88.9983,1.7637,164.0053,196.1218,0,U,69393,999,215,.29908125E-4,.8E-6,0
QIANFAN-177,2026-124N,2026-06-19T13:17:17.008512,14.22730424,.00037866,88.9983,1.7632,139.3322,220.8153,0,U,69394,999,215,.22456274E-4,.65E-6,0
QIANFAN-178,2026-124P,2026-06-19T13:19:16.891968,14.22274314,.00030195,88.9983,1.7633,147.9722,212.1654,0,U,69395,999,215,.11087607E-3,.261E-5,0
QIANFAN-179,2026-124Q,2026-06-19T13:14:23.411904,14.23097056,.00030394,88.9983,1.7628,143.4768,216.6631,0,U,69396,999,215,.22729326E-4,.66E-6,0
QIANFAN-180,2026-124R,2026-06-19T13:12:37.089792,14.23618605,.00032237,88.9983,1.7628,156.3382,203.7959,0,U,69397,999,215,.22335102E-4,.65E-6,0
