STARLINK-37687          
1 69368U 26123R   26170.58335648 -.00045256  00000+0 -22681-3 0  9999
2 69368  53.1578 229.2585 0001141  85.5839 226.8649 15.80885719  3542
STARLINK-37631          
1 69369U 26123S   26170.58335648 -.00038573  00000+0 -19266-3 0  9999
2 69369  53.1578 229.2676 0001057  82.2924 225.6491 15.80884402  3594
STARLINK-37673          
1 69370U 26123T   26170.52887071  .00167659  00000+0  83488-3 0  9990
2 69370  53.1574 229.5339 0001395  25.6334 334.4758 15.80917343  2418
STARLINK-37645          
1 69371U 26123U   26170.53074663  .00201241  00000+0  99541-3 0  9990
2 69371  53.1571 229.5463 0001073  56.5756 303.5369 15.80963084  2416
STARLINK-37688          
1 69372U 26123V   26170.52817026  .00099777  00000+0  50210-3 0  9997
2 69372  53.1569 229.5284 0001179 100.0241 260.0915 15.80921799  2417
STARLINK-37685          
1 69373U 26123W   26170.52766421  .00185041  00000+0  91793-3 0  9991
2 69373  53.1571 229.5247 0001320  70.7809 289.3357 15.80947728  2415
STARLINK-37632          
1 69374U 26123X   26170.52692010  .00207484  00000+0  10250-2 0  9998
2 69374  53.1571 229.5196 0000532  72.3595 287.7486 15.80972113  2414
STARLINK-37454          
1 69375U 26123Y   26170.52582690  .00112537  00000+0  56497-3 0  9999
2 69375  53.1571 229.5122 0001252  75.5873 284.5289 15.80924043  2413
STARLINK-37485          
1 69376U 26123Z   26170.52508599  .00157836  00000+0  78600-3 0  9997
2 69376  53.1571 229.5069 0000742  59.8641 300.2455 15.80946918  2411
STARLINK-37439          
1 69377U 26123AA  26170.58118974  .00150039  00000+0  74845-3 0  9993
2 69377  53.1574 229.1416 0001364  64.5188 295.5975 15.80934275  2424
STARLINK-37376          
1 69378U 26123AB  26170.58335648 -.00118565  00000+0 -77892-3 0  9998
2 69378  53.1592 229.2316 0001166  82.0517 241.8863 15.75274620  3680
STARLINK-37383          
1 69379U 26123AC  26170.57765863  .00137365  00000+0  68669-3 0  9993
2 69379  53.1574 229.1163 0001239  67.6541 292.4613 15.80929381  2420
STARLINK-37411          
1 69380U 26123AD  26170.58254680  .00168851  00000+0  83963-3 0  9994
2 69380  53.1573 229.1500 0001347  73.9165 286.2006 15.80944346  2423
STARLINK-37427          
1 69381U 26123AE  26170.57844395  .00135974  00000+0  67985-3 0  9998
2 69381  53.1574 229.1217 0001210  67.1932 292.9219 15.80930596  2428
QIANFAN-165             
1 69382U 26124A   26170.51823240  .00000059  00000+0  22859-4 0  9997
2 69382  88.9984   1.7767 0003118 115.9304 244.2205 14.16012666  2149
QIANFAN-166             
1 69383U 26124B   26170.58266876  .00000099  00000+0  41960-4 0  9999
2 69383  88.9984   1.7677 0002731 106.3306 253.8183 14.17059815  2156
QIANFAN-167             
1 69384U 26124C   26170.58374776  .00000055  00000+0  20516-4 0  9995
2 69384  88.9983   1.7677 0002179 152.7236 207.4067 14.16526232  2156
QIANFAN-168             
1 69385U 26124D   26170.57774982  .00000082  00000+0  33334-4 0  9990
2 69385  88.9983   1.7670 0003279 127.9783 232.1702 14.17873175  2156
QIANFAN-169             
1 69386U 26124E   26170.57467710  .00000085  00000+0  34570-4 0  9995
2 69386  88.9983   1.7664 0003377 145.9780 214.1627 14.18286761  2152
QIANFAN-170             
1 69387U 26124F   26170.57057123  .00000075  00000+0  29102-4 0  9993
2 69387  88.9983   1.7657 0003217 122.6489 237.5011 14.19183720  2154
QIANFAN-171             
1 69388U 26124G   26170.56614389  .00000370  00000+0  16692-3 0  9993
2 69388  88.9983   1.7650 0002244 170.1978 189.9256 14.20068192  2156
QIANFAN-172             
1 69389U 26124H   26170.56800322  .00000076  00000+0  29026-4 0  9997
2 69389  88.9983   1.7654 0002583 146.3929 213.7425 14.19638399  2152
QIANFAN-173             
1 69390U 26124J   26170.56409855  .00000072  00000+0  26826-4 0  9996
2 69390  88.9983   1.7648 0002918 136.9321 223.2098 14.20509812  2151
QIANFAN-174             
1 69391U 26124K   26170.56045996  .00000098  00000+0  38774-4 0  9992
2 69391  88.9983   1.7642 0003075 144.5759 215.5637 14.20878233  2150
QIANFAN-175             
1 69392U 26124L   26170.55935522  .00000081  00000+0  30542-4 0  9992
2 69392  88.9983   1.7641 0003554 162.6693 197.4620 14.21339712  2155
QIANFAN-176             
1 69393U 26124M   26170.55694030  .00000080  00000+0  29908-4 0  9992
2 69393  88.9983   1.7637 0002493 164.0053 196.1218 14.21841006  2151
QIANFAN-177             
1 69394U 26124N   26170.55366908  .00000065  00000+0  22456-4 0  9997
2 69394  88.9983   1.7632 0003786 139.3322 220.8153 14.22730424  2152
QIANFAN-178             
1 69395U 26124P   26170.55505662  .00000261  00000+0  11088-3 0  9996
2 69395  88.9983   1.7633 0003019 147.9722 212.1654 14.22274314  2153
QIANFAN-179             
1 69396U 26124Q   26170.55165986  .00000066  00000+0  22729-4 0  9996
2 69396  88.9983   1.7628 0003039 143.4768 216.6631 14.23097056  2152
QIANFAN-180             
1 69397U 26124R   26170.55042928  .00000065  00000+0  22335-4 0  9999
2 69397  88.9983   1.7628 0003223 156.3382 203.7959 14.23618605  2152
